norad_id,name,regime,epoch,line1,line2,inclination,eccentricity,mean_motion,raan,arg_pericenter,mean_anomaly
36395,SDO,IGO,22035.67772076,1 36395U 10005A   22035.67772076 -.00000085  00000-0  00000-0 0    14\,2 36395  31.4003 111.3820 0001751 228.1447 296.8407  1.00276638 44082,31.4003,0.0001751,1.00276638,111.382,228.1447,296.8407
36395,SDO,IGO,22037.20605106,1 36395U 10005A   22037.20605106 -.00000083  00000-0  00000-0 0    12\,2 36395  31.4025 111.3571 0001844 223.0396 133.6972  1.00276766 44097,31.4025,0.0001844,1.00276766,111.3571,223.0396,133.6972
36395,SDO,IGO,22038.23666275,1 36395U 10005A   22038.23666275 -.00000083  00000-0  00000-0 0    10\,2 36395  31.4042 111.3402 0001818 222.4337 146.3703  1.00276808 44111,31.4042,0.0001818,1.00276808,111.3402,222.4337,146.3703
36395,SDO,IGO,22039.22132602,1 36395U 10005A   22039.22132602 -.00000085  00000-0  00000-0 0    14\,2 36395  31.4059 111.3241 0001783 222.6428 141.6405  1.00276853 44122,31.4059,0.0001783,1.00276853,111.3241,222.6428,141.6405
36395,SDO,IGO,22040.17041140,1 36395U 10005A   22040.17041140 -.00000086  00000-0  00000+0 0  6663\,2 36395  31.4077 111.3087 0001750 223.0504 123.8681  1.00276875 44092,31.4077,0.000175,1.00276875,111.3087,223.0504,123.8681
36395,SDO,IGO,22040.24442337,1 36395U 10005A   22040.24442337 -.00000086  00000-0  00000-0 0    18\,2 36395  31.4079 111.3075 0001715 221.1630 152.4758  1.00276922 44132,31.4079,0.0001715,1.00276922,111.3075,221.163,152.4758
36395,SDO,IGO,22041.21608206,1 36395U 10005A   22041.21608206 -.00000088  00000-0  00000-0 0    17\,2 36395  31.4096 111.2918 0001681 221.6043 142.8191  1.00276913 44146,31.4096,0.0001681,1.00276913,111.2918,221.6043,142.8191
36395,SDO,IGO,22042.20465984,1 36395U 10005A   22042.20465984 -.00000089  00000-0  00000-0 0    12\,2 36395  31.4111 111.2759 0001676 225.0854 136.2296  1.00276841 44153,31.4111,0.0001676,1.00276841,111.2759,225.0854,136.2296
36395,SDO,IGO,22043.25667642,1 36395U 10005A   22043.25667642 -.00000089  00000-0  00000-0 0    13\,2 36395  31.4128 111.2589 0001634 225.5380 155.5721  1.00276798 44164,31.4128,0.0001634,1.00276798,111.2589,225.538,155.5721
36395,SDO,IGO,22044.19561572,1 36395U 10005A   22044.19561572 -.00000087  00000-0  00000-0 0    10\,2 36395  31.4141 111.2437 0001605 226.1333 133.9490  1.00276740 44175,31.4141,0.0001605,1.0027674,111.2437,226.1333,133.949
36395,SDO,IGO,22044.65330639,1 36395U 10005A   22044.65330639 -.00000086  00000-0  00000+0 0  6697\,2 36395  31.4148 111.2363 0001627 229.3838 295.9314  1.00276684 44147,31.4148,0.0001627,1.00276684,111.2363,229.3838,295.9314
36395,SDO,IGO,22045.22410373,1 36395U 10005A   22045.22410373 -.00000084  00000-0  00000-0 0    14\,2 36395  31.4158 111.2270 0001623 230.2017 141.1800  1.00276633 44181,31.4158,0.0001623,1.00276633,111.227,230.2017,141.18
36395,SDO,IGO,22046.19980021,1 36395U 10005A   22046.19980021 -.00000080  00000-0  00000+0 0  6700\,2 36395  31.4174 111.2111 0001620 231.8884 131.7347  1.00276540 44165,31.4174,0.000162,1.0027654,111.2111,231.8884,131.7347
36395,SDO,IGO,22046.22699243,1 36395U 10005A   22046.22699243 -.00000080  00000-0  00000-0 0    16\,2 36395  31.4174 111.2107 0001620 231.9723 141.4677  1.00276538 44197,31.4174,0.000162,1.00276538,111.2107,231.9723,141.4677
36395,SDO,IGO,22047.17549282,1 36395U 10005A   22047.17549282 -.00000075  00000-0  00000-0 0    12\,2 36395  31.4190 111.1952 0001626 233.6774 122.1855  1.00276436 44194,31.419,0.0001626,1.00276436,111.1952,233.6774,122.1855
36395,SDO,IGO,22048.67047424,1 36395U 10005A   22048.67047424 -.00000069  00000-0  00000-0 0    12\,2 36395  31.4216 111.1706 0001660 235.5887 299.9844  1.00276232 44212,31.4216,0.000166,1.00276232,111.1706,235.5887,299.9844
36395,SDO,IGO,22049.18601851,1 36395U 10005A   22049.18601851 -.00000067  00000-0  00000-0 0    17\,2 36395  31.4225 111.1620 0001676 236.3855 125.3064  1.00276186 44223,31.4225,0.0001676,1.00276186,111.162,236.3855,125.3064
36395,SDO,IGO,22049.65533523,1 36395U 10005A   22049.65533523 -.00000066  00000-0  00000-0 0    18\,2 36395  31.4233 111.1542 0001696 236.5137 294.6082  1.00276094 44220,31.4233,0.0001696,1.00276094,111.1542,236.5137,294.6082
36395,SDO,IGO,22050.18441060,1 36395U 10005A   22050.18441060 -.00000065  00000-0  00000-0 0    11\,2 36395  31.4243 111.1454 0001716 237.2185 124.9068  1.00276047 44235,31.4243,0.0001716,1.00276047,111.1454,237.2185,124.9068
36395,SDO,IGO,22050.63661417,1 36395U 10005A   22050.63661417 -.00000065  00000-0  00000-0 0    11\,2 36395  31.4251 111.1379 0001745 237.5074 287.8695  1.00275951 44230,31.4251,0.0001745,1.00275951,111.1379,237.5074,287.8695
36395,SDO,IGO,22051.65245771,1 36395U 10005A   22051.65245771 -.00000066  00000-0  00000-0 0    16\,2 36395  31.4270 111.1209 0001799 238.3383 293.7717  1.00275808 44247,31.427,0.0001799,1.00275808,111.1209,238.3383,293.7717
36395,SDO,IGO,22052.18289328,1 36395U 10005A   22052.18289328 -.00000068  00000-0  00000-0 0    13\,2 36395  31.4280 111.1119 0001821 238.6816 124.9224  1.00275758 44251,31.428,0.0001821,1.00275758,111.1119,238.6816,124.9224
36395,SDO,IGO,22053.18313292,1 36395U 10005A   22053.18313292 -.00000072  00000-0  00000-0 0    17\,2 36395  31.4300 111.0951 0001874 239.1355 125.5677  1.00275623 44260,31.43,0.0001874,1.00275623,111.0951,239.1355,125.5677
36395,SDO,IGO,22054.17149788,1 36395U 10005A   22054.17149788 -.00000078  00000-0  00000-0 0    10\,2 36395  31.4320 111.0784 0001922 239.2696 122.2455  1.00275505 44277,31.432,0.0001922,1.00275505,111.0784,239.2696,122.2455
36395,SDO,IGO,22054.62980675,1 36395U 10005A   22054.62980675 -.00000081  00000-0  00000-0 0    12\,2 36395  31.4330 111.0707 0001949 239.6501 287.3199  1.00275457 44275,31.433,0.0001949,1.00275457,111.0707,239.6501,287.3199
36395,SDO,IGO,22055.17580216,1 36395U 10005A   22055.17580216 -.00000085  00000-0  00000-0 0    14\,2 36395  31.4341 111.0615 0001966 239.1174 124.9634  1.00275403 44287,31.4341,0.0001966,1.00275403,111.0615,239.1174,124.9634
36395,SDO,IGO,22055.63180914,1 36395U 10005A   22055.63180914 -.00000088  00000-0  00000-0 0    19\,2 36395  31.4351 111.0538 0001989 239.2837 289.4208  1.00275371 44282,31.4351,0.0001989,1.00275371,111.0538,239.2837,289.4208
36395,SDO,IGO,22056.14910722,1 36395U 10005A   22056.14910722 -.00000090  00000-0  00000-0 0    17\,2 36395  31.4362 111.0451 0002006 238.6051 116.8501  1.00275334 44288,31.4362,0.0002006,1.00275334,111.0451,238.6051,116.8501
36395,SDO,IGO,22056.64435900,1 36395U 10005A   22056.64435900 -.00000092  00000-0  00000-0 0    14\,2 36395  31.4373 111.0368 0002024 238.4203 295.8263  1.00275308 44299,31.4373,0.0002024,1.00275308,111.0368,238.4203,295.8263
36395,SDO,IGO,22057.63424476,1 36395U 10005A   22057.63424476 -.00000094  00000-0  00000-0 0    12\,2 36395  31.4393 111.0202 0002056 237.7735 293.8330  1.00275272 44300,31.4393,0.0002056,1.00275272,111.0202,237.7735,293.833
36395,SDO,IGO,22058.65362851,1 36395U 10005A   22058.65362851 -.00000093  00000-0  00000-0 0    12\,2 36395  31.4414 111.0031 0002083 237.3154 302.3000  1.00275266 44319,31.4414,0.0002083,1.00275266,111.0031,237.3154,302.3
36395,SDO,IGO,22059.64251831,1 36395U 10005A   22059.64251831 -.00000090  00000-0  00000-0 0    14\,2 36395  31.4435 110.9866 0002098 237.0311 299.5846  1.00275289 44325,31.4435,0.0002098,1.00275289,110.9866,237.0311,299.5846
36395,SDO,IGO,22060.63235771,1 36395U 10005A   22060.63235771 -.00000086  00000-0  00000-0 0    15\,2 36395  31.4455 110.9700 0002098 236.9067 297.0523  1.00275340 44334,31.4455,0.0002098,1.0027534,110.97,236.9067,297.0523
36395,SDO,IGO,22061.13282042,1 36395U 10005A   22061.13282042 -.00000083  00000-0  00000-0 0    11\,2 36395  31.4465 110.9617 0002104 236.8454 117.7863  1.00275364 44330,31.4465,0.0002104,1.00275364,110.9617,236.8454,117.7863
36395,SDO,IGO,22061.63202296,1 36395U 10005A   22061.63202296 -.00000081  00000-0  00000-0 0    17\,2 36395  31.4476 110.9535 0002083 236.6628 298.1867  1.00275413 44342,31.4476,0.0002083,1.00275413,110.9535,236.6628,298.1867
36395,SDO,IGO,22062.13748907,1 36395U 10005A   22062.13748907 -.00000078  00000-0  00000-0 0    13\,2 36395  31.4486 110.9451 0002079 236.6533 120.6753  1.00275437 44349,31.4486,0.0002079,1.00275437,110.9451,236.6533,120.6753
36395,SDO,IGO,22062.64244461,1 36395U 10005A   22062.64244461 -.00000076  00000-0  00000-0 0    13\,2 36395  31.4495 110.9368 0002053 236.4793 303.1440  1.00275501 44358,31.4495,0.0002053,1.00275501,110.9368,236.4793,303.144
36395,SDO,IGO,22063.14213907,1 36395U 10005A   22063.14213907 -.00000074  00000-0  00000-0 0    18\,2 36395  31.4505 110.9286 0002042 236.7722 123.2465  1.00275521 44363,31.4505,0.0002042,1.00275521,110.9286,236.7722,123.2465
36395,SDO,IGO,22063.65775296,1 36395U 10005A   22063.65775296 -.00000073  00000-0  00000-0 0    17\,2 36395  31.4515 110.9201 0002016 236.3461 309.8154  1.00275592 44363,31.4515,0.0002016,1.00275592,110.9201,236.3461,309.8154
36395,SDO,IGO,22064.14674824,1 36395U 10005A   22064.14674824 -.00000072  00000-0  00000+0 0  6842\,2 36395  31.4524 110.9121 0002000 236.7400 125.9545  1.00275609 44331,31.4524,0.0002,1.00275609,110.9121,236.74,125.9545
36395,SDO,IGO,22064.63147498,1 36395U 10005A   22064.63147498 -.00000071  00000-0  00000-0 0    11\,2 36395  31.4533 110.9042 0001977 236.5448 301.1419  1.00275673 44378,31.4533,0.0001977,1.00275673,110.9042,236.5448,301.1419
36395,SDO,IGO,22065.15146222,1 36395U 10005A   22065.15146222 -.00000071  00000-0  00000-0 0    13\,2 36395  31.4542 110.8957 0001956 237.1051 128.3031  1.00275688 44382,31.4542,0.0001956,1.00275688,110.8957,237.1051,128.3031
36395,SDO,IGO,22066.63258698,1 36395U 10005A   22066.63258698 -.00000072  00000-0  00000-0 0    19\,2 36395  31.4568 110.8715 0001899 237.5794 302.5329  1.00275777 44392,31.4568,0.0001899,1.00275777,110.8715,237.5794,302.5329
